CRE (WAAS/PRN 138)      
1 28868U 05036A   22023.88409722 -.00000062  00000+0  00000+0 0  9992
2 28868   0.1967  93.4149 0002265 263.5654 337.1685  1.00271302 30353
IOR-W (EGNOS/PRN 126)   
1 28899U 05044A   22023.77465810  .00000022  00000+0  00000+0 0  9998
2 28899   3.3922  35.9956 0002874 275.3029 154.5294  1.00271803 59425
QZS-1 (QZSS/PRN 183)    
1 37158U 10045A   22023.59658976 -.00000113  00000+0  00000+0 0  9992
2 37158  42.1859 135.3995 0761837 270.5105  74.8831  1.00267268 41617
GSAT-8 (GAGAN/PRN 127)  
1 37605U 11022A   22023.77291375  .00000097  00000+0  00000+0 0  9991
2 37605   0.0440 266.3214 0007844  10.5262 179.5255  1.00271852 37127
LUCH 5A (SDCM/PRN 140)  
1 37951U 11074B   22023.86700243 -.00000038  00000+0  00000+0 0  9997
2 37951   4.6557 100.5763 0002706 213.4772 288.0769  1.00273107 37097
SES-5 (EGNOS/PRN 136)   
1 38652U 12036A   22023.76747694  .00000046  00000+0  00000+0 0  9993
2 38652   0.0578 285.8911 0002052  17.9047 100.5282  1.00271539 28384
GSAT-10 (GAGAN/PRN 128) 
1 38779U 12051B   22023.82514899 -.00000153  00000+0  00000+0 0  9996
2 38779   0.0989 273.2103 0003646 342.7064 247.2618  1.00272564 34010
LUCH 5B (SDCM/PRN 125)  
1 38977U 12061A   22023.83045796 -.00000126  00000+0  00000+0 0  9993
2 38977   6.9809  63.6893 0000584 228.4331 113.6363  1.00271077 34075
ASTRA 5B (EGNOS/PRN 123)
1 39617U 14011B   22023.76820396  .00000166  00000+0  00000+0 0  9994
2 39617   0.0490 317.3732 0004015 328.6929 145.0408  1.00268282 28568
LUCH 5V (SDCM/PRN 141)  
1 39727U 14023A   22023.78085060 -.00000258  00000+0  00000+0 0  9995
2 39727   1.1639  71.9968 0002024 277.2142 149.6870  1.00274264 28262
GSAT-15 (GAGAN/PRN 139) 
1 41028U 15065A   22024.06327309 -.00000245  00000+0  00000+0 0  9992
2 41028   0.0534 266.6994 0001141 351.1967 341.7270  1.00270586 22760
E 117 W B (WAAS/PRN 131)
1 41589U 16038B   22023.65960900  .00000001  00000+0  00000+0 0  9998
2 41589   0.0083 189.5869 0000133  16.1432  37.6788  1.00272701 20573
SES-15 (WAAS/PRN 133)   
1 42709U 17026A   22023.73619484  .00000072  00000+0  00000+0 0  9996
2 42709   0.0187   9.4629 0000626 311.6427 297.8073  1.00272062 18047
QZS-2 (QZSS/PRN 184)    
1 42738U 17028A   22021.54702080 -.00000106  00000+0  00000+0 0  9991
2 42738  42.0143 266.2395 0753683 269.7938 282.7468  1.00277686 17012
QZS-3 (QZSS/PRN 189)    
1 42917U 17048A   22024.14215959 -.00000336  00000+0  00000+0 0  9990
2 42917   0.0612 220.6055 0001792  97.2885 343.7370  1.00268907 16278
QZS-4 (QZSS/PRN 185)    
1 42965U 17062A   22023.41021795 -.00000297  00000+0  00000+0 0  9997
2 42965  40.7973   3.9769 0751003 268.8163 134.7116  1.00293828 15712
